ONEWEB-0012             
1 44057U 19010A   24019.13238555  .00000071  00000+0  15078-3 0  9990
2 44057  87.9047  43.9531 0002510 108.1612 251.9792 13.16593664235794
ONEWEB-0010             
1 44058U 19010B   24019.15771556 -.00000007  00000+0 -52934-4 0  9990
2 44058  87.9042  43.9260 0002503  89.5239 270.6178 13.16594808235841
ONEWEB-0008             
1 44059U 19010C   24018.57508368  .00000010  00000+0 -64636-5 0  9991
2 44059  87.9049  44.0440 0001562  94.1673 265.9636 13.16592405235857
ONEWEB-0007             
1 44060U 19010D   24018.67122193  .00000153  00000+0  37355-3 0  9995
2 44060  87.8979  74.4686 0002181 106.4012 253.7358 13.15549963235600
ONEWEB-0006             
1 44061U 19010E   24018.65696080 -.00000292  00000+0 -81027-3 0  9996
2 44061  87.8967  74.4601 0002171 100.2624 259.8751 13.15547915235659
ONEWEB-0011             
1 44062U 19010F   24018.64508506 -.00000106  00000+0 -31627-3 0  9996
2 44062  87.8973  74.4683 0002009  91.3356 268.8005 13.15548811235646
ONEWEB-0013             
1 45131U 20008A   24018.65863777  .00000546  00000+0  15491-2 0  9994
2 45131  87.8542 229.8169 0001480 126.1372 233.9892 13.09359517190832
ONEWEB-0017             
1 45132U 20008B   24018.90367146  .00000562  00000+0  15737-2 0  9993
2 45132  87.8896 211.1236 0001538  83.9411 276.1892 13.10374281192661
